$$SOE
2460154.500000000, A.D. 2023-Jul-29 00:00:00.0000, 1.650517341726876E+08, 2.161973995205536E+08, -4.409705173433920E+07,
2460161.500000000, A.D. 2023-Aug-05 00:00:00.0000, 1.545603645372263E+08, 2.239917194460430E+08, -4.734453942520660E+07,
2460168.500000000, A.D. 2023-Aug-12 00:00:00.0000, 1.437131468175313E+08, 2.312703016754638E+08, -5.048300169851248E+07,
2460175.500000000, A.D. 2023-Aug-19 00:00:00.0000, 1.325375411341966E+08, 2.380203859269155E+08, -5.350608501796993E+07,
2460182.500000000, A.D. 2023-Aug-26 00:00:00.0000, 1.210614044128518E+08, 2.442307117237758E+08, -5.640781745619304E+07,
2460189.500000000, A.D. 2023-Sep-02 00:00:00.0000, 1.093128972287805E+08, 2.498915075090258E+08, -5.918261501228317E+07,
2460196.500000000, A.D. 2023-Sep-09 00:00:00.0000, 9.732039418861786E+07, 2.549944740885296E+08, -6.182528602157804E+07,
2460203.500000000, A.D. 2023-Sep-16 00:00:00.0000, 8.511239834330797E+07, 2.595327628672032E+08, -6.433103379117425E+07,
2460210.500000000, A.D. 2023-Sep-23 00:00:00.0000, 7.271746030754790E+07, 2.635009496940883E+08, -6.669545759874572E+07,
2460217.500000000, A.D. 2023-Sep-30 00:00:00.0000, 6.016410194687536E+07, 2.668950060355940E+08, -6.891455205813451E+07,
2460224.500000000, A.D. 2023-Oct-07 00:00:00.0000, 4.748074242265236E+07, 2.697122674367256E+08, -7.098470480958951E+07,
2460231.500000000, A.D. 2023-Oct-14 00:00:00.0000, 3.469562770367032E+07, 2.719513964452899E+08, -7.290269302521317E+07,
2460238.500000000, A.D. 2023-Oct-21 00:00:00.0000, 2.183676680304017E+07, 2.736123421008128E+08, -7.466567903718898E+07,
2460245.500000000, A.D. 2023-Oct-28 00:00:00.0000, 8.931873321957327E+06, 2.746962987039666E+08, -7.627120490969971E+07,
2460252.500000000, A.D. 2023-Nov-04 00:00:00.0000, -3.991688993339591E+06, 2.752056635063711E+08, -7.771718601970226E+07,
2460259.500000000, A.D. 2023-Nov-11 00:00:00.0000, -1.690695659271444E+07, 2.751439931027391E+08, -7.900190381780785E+07,
2460266.500000000, A.D. 2023-Nov-18 00:00:00.0000, -2.978741227300267E+07, 2.745159588184035E+08, -8.012399789587159E+07,
2460273.500000000, A.D. 2023-Nov-25 00:00:00.0000, -4.260702723038484E+07, 2.733273014541190E+08, -8.108245747233188E+07,
2460280.500000000, A.D. 2023-Dec-02 00:00:00.0000, -5.534029916607383E+07, 2.715847856964281E+08, -8.187661241204861E+07,
2460287.500000000, A.D. 2023-Dec-09 00:00:00.0000, -6.796228655144371E+07, 2.692961544235556E+08, -8.250612390304275E+07,
2460294.500000000, A.D. 2023-Dec-16 00:00:00.0000, -8.044863895460619E+07, 2.664700831702627E+08, -8.297097491312757E+07,
2460301.500000000, A.D. 2023-Dec-23 00:00:00.0000, -9.277562328095926E+07, 2.631161356544549E+08, -8.327146048611499E+07,
2460308.500000000, A.D. 2023-Dec-30 00:00:00.0000, -1.049201474790839E+08, 2.592447216041320E+08, -8.340817774530804E+07,
2460315.500000000, A.D. 2024-Jan-06 00:00:00.0000, -1.168597836909181E+08, 2.548670546853795E+08, -8.338201570047577E+07,
2460322.500000000, A.D. 2024-Jan-13 00:00:00.0000, -1.285727878827281E+08, 2.499951088440116E+08, -8.319414534221554E+07,
2460329.500000000, A.D. 2024-Jan-20 00:00:00.0000, -1.400381149606152E+08, 2.446415762507347E+08, -8.284600993113184E+07,
2460336.500000000, A.D. 2024-Jan-27 00:00:00.0000, -1.512354316141768E+08, 2.388198275970699E+08, -8.233931529063787E+07,
2460343.500000000, A.D. 2024-Feb-03 00:00:00.0000, -1.621451275222726E+08, 2.325438738562662E+08, -8.167602017551833E+07,
2460350.500000000, A.D. 2024-Feb-10 00:00:00.0000, -1.727483248509400E+08, 2.258283292586930E+08, -8.085832679519305E+07,
2460357.500000000, A.D. 2024-Feb-17 00:00:00.0000, -1.830268861083513E+08, 2.186883755171559E+08, -7.988867153422965E+07,
2460364.500000000, A.D. 2024-Feb-24 00:00:00.0000, -1.929634205152274E+08, 2.111397273332965E+08, -7.876971590156858E+07,
2460371.500000000, A.D. 2024-Mar-02 00:00:00.0000, -2.025412890439118E+08, 2.031985991578225E+08, -7.750433773899709E+07,
2460378.500000000, A.D. 2024-Mar-09 00:00:00.0000, -2.117446081576322E+08, 1.948816731351546E+08, -7.609562272544196E+07,
2460385.500000000, A.D. 2024-Mar-16 00:00:00.0000, -2.205582520137594E+08, 1.862060684105872E+08, -7.454685620871082E+07,
2460392.500000000, A.D. 2024-Mar-23 00:00:00.0000, -2.289678533850800E+08, 1.771893128773691E+08, -7.286151527022600E+07,
2460399.500000000, A.D. 2024-Mar-30 00:00:00.0000, -2.369598056860062E+08, 1.678493172971463E+08, -7.104326082341796E+07,
2460406.500000000, A.D. 2024-Apr-06 00:00:00.0000, -2.445212659823496E+08, 1.582043483846747E+08, -6.909593004662563E+07,
2460413.500000000, A.D. 2024-Apr-13 00:00:00.0000, -2.516401555463445E+08, 1.482730016379279E+08, -6.702352939802711E+07,
2460420.500000000, A.D. 2024-Apr-20 00:00:00.0000, -2.583051590216609E+08, 1.380741765172337E+08, -6.483022789459190E+07,
2460427.500000000, A.D. 2024-Apr-27 00:00:00.0000, -2.645057238307767E+08, 1.276270533451457E+08, -6.252035055833505E+07,
2460434.500000000, A.D. 2024-May-04 00:00:00.0000, -2.702320598356820E+08, 1.169510711586659E+08, -6.009837208792577E+07,
2460441.500000000, A.D. 2024-May-11 00:00:00.0000, -2.754751390996950E+08, 1.060659063386832E+08, -5.756891077248777E+07,
2460448.500000000, A.D. 2024-May-18 00:00:00.0000, -2.802266957474698E+08, 9.499145195974448E+07, -5.493672263842401E+07,
2460455.500000000, A.D. 2024-May-25 00:00:00.0000, -2.844792259704104E+08, 8.374779777220784E+07, -5.220669581634235E+07,
2460462.500000000, A.D. 2024-Jun-01 00:00:00.0000, -2.882259881818109E+08, 7.235521067669097E+07, -4.938384512127328E+07,
2460469.500000000, A.D. 2024-Jun-08 00:00:00.0000, -2.914610031314779E+08, 6.083411558343246E+07, -4.647330685222942E+07,
2460476.500000000, A.D. 2024-Jun-15 00:00:00.0000, -2.941790536279539E+08, 4.920507711524060E+07, -4.348033378323752E+07,
2460483.500000000, A.D. 2024-Jun-22 00:00:00.0000, -2.963756849134224E+08, 3.748878323975958E+07, -4.041029013650843E+07,
2460490.500000000, A.D. 2024-Jun-29 00:00:00.0000, -2.980472078502675E+08, 2.570602891817328E+07, -3.726864647164218E+07,
2460497.500000000, A.D. 2024-Jul-06 00:00:00.0000, -2.991907023098465E+08, 1.387769721065628E+07, -3.406097491559463E+07,
2460504.500000000, A.D. 2024-Jul-13 00:00:00.0000, -2.998040188329656E+08, 2.024740577467499E+06, -3.079294465649030E+07,
2460511.500000000, A.D. 2024-Jul-20 00:00:00.0000, -2.998857805516694E+08, -9.831836570633687E+06, -2.747031739736481E+07,
2460518.500000000, A.D. 2024-Jul-27 00:00:00.0000, -2.994353860385144E+08, -2.167099513333533E+07, -2.409894276462017E+07,
2460525.500000000, A.D. 2024-Aug-03 00:00:00.0000, -2.984530128229241E+08, -3.347167886078867E+07, -2.068475370423459E+07,
2460532.500000000, A.D. 2024-Aug-10 00:00:00.0000, -2.969396214087027E+08, -4.521283226181167E+07, -1.723376185394326E+07,
2460539.500000000, A.D. 2024-Aug-17 00:00:00.0000, -2.948969597271441E+08, -5.687341893987749E+07, -1.375205286197407E+07,
2460546.500000000, A.D. 2024-Aug-24 00:00:00.0000, -2.923275679591411E+08, -6.843244046245793E+07, -1.024578162236060E+07,
2460553.500000000, A.D. 2024-Aug-31 00:00:00.0000, -2.892347835571838E+08, -7.986895591997266E+07, -6.721167410122752E+06,
2460560.500000000, A.D. 2024-Sep-07 00:00:00.0000, -2.856227460510258E+08, -9.116210215626596E+07, -3.184488912962303E+06,
2460567.500000000, A.D. 2024-Sep-14 00:00:00.0000, -2.814964015140281E+08, -1.022911137832685E+08, 3.579209371292144E+05,
2460574.500000000, A.D. 2024-Sep-21 00:00:00.0000, -2.768615086833132E+08, -1.132353426632549E+08, 3.899680577564426E+06,
2460581.500000000, A.D. 2024-Sep-28 00:00:00.0000, -2.717246471742998E+08, -1.239742801726186E+08, 7.434365685253046E+06,
2460588.500000000, A.D. 2024-Oct-05 00:00:00.0000, -2.660932240583648E+08, -1.344875823273404E+08, 1.095551500059934E+07,
2460595.500000000, A.D. 2024-Oct-12 00:00:00.0000, -2.599754790828819E+08, -1.447550948663187E+08, 1.445663641797914E+07,
2460602.500000000, A.D. 2024-Oct-19 00:00:00.0000, -2.533804901822713E+08, -1.547568786371414E+08, 1.793121351606937E+07,
2460609.500000000, A.D. 2024-Oct-26 00:00:00.0000, -2.463181791983516E+08, -1.644732361637380E+08, 2.137271249743555E+07,
2460616.500000000, A.D. 2024-Nov-02 00:00:00.0000, -2.387993174372432E+08, -1.738847396242866E+08, 2.477458953240899E+07,
2460623.500000000, A.D. 2024-Nov-09 00:00:00.0000, -2.308355308464824E+08, -1.829722602906230E+08, 2.813029853180479E+07,
2460630.500000000, A.D. 2024-Nov-16 00:00:00.0000, -2.224393046536990E+08, -1.917169994903186E+08, 3.143329937791276E+07,
2460637.500000000, A.D. 2024-Nov-23 00:00:00.0000, -2.136239872729681E+08, -2.001005211948569E+08, 3.467706663592717E+07,
2460644.500000000, A.D. 2024-Nov-30 00:00:00.0000, -2.044037931115819E+08, -2.081047863222990E+08, 3.785509875227848E+07,
2460651.500000000, A.D. 2024-Dec-07 00:00:00.0000, -1.947938036876022E+08, -2.157121883696436E+08, 4.096092776319728E+07,
2460658.500000000, A.D. 2024-Dec-14 00:00:00.0000, -1.848099675643364E+08, -2.229055891740174E+08, 4.398812970176972E+07,
2460665.500000000, A.D. 2024-Dec-21 00:00:00.0000, -1.744691012242995E+08, -2.296683560533995E+08, 4.693033583649275E+07,
2460672.500000000, A.D. 2024-Dec-28 00:00:00.0000, -1.637888887043040E+08, -2.359844032941751E+08, 4.978124433718187E+07,
2460679.500000000, A.D. 2025-Jan-04 00:00:00.0000, -1.527878771822957E+08, -2.418382355956916E+08, 5.253463234205848E+07,
2460686.500000000, A.D. 2025-Jan-11 00:00:00.0000, -1.414854701154038E+08, -2.472149917762677E+08, 5.518436874308686E+07,
2460693.500000000, A.D. 2025-Jan-18 00:00:00.0000, -1.299019186134797E+08, -2.521004895994942E+08, 5.772442770713004E+07,
2460700.500000000, A.D. 2025-Jan-25 00:00:00.0000, -1.180583105618018E+08, -2.564812721113847E+08, 6.014890287273886E+07,
2460707.500000000, A.D. 2025-Feb-01 00:00:00.0000, -1.059765570516444E+08, -2.603446554134356E+08, 6.245202219620755E+07,
2460714.500000000, A.D. 2025-Feb-08 00:00:00.0000, -9.367937580547979E+07, -2.636787777269156E+08, 6.462816343194231E+07,
$$EOE